TerminalID,ProjectID,ComboID,Wiki,Name,Facility,Country,Status,OtherNames,Parent,StartYear1,StartYear2,StartYear3,StopYear,Capacity,CapacityUnits,CapacityInMtpa,Region,Location,Prefecture/District,State/Province,Latitude,Longitude,Accuracy,FID,FIDYear,Floating
T0424,0,T042400,https://www.gem.wiki/Eagle_FLNG_Terminal,Eagle FLNG Terminal,Import,Albania,Cancelled,,Gruppo Falcone,,,,,8.1,mtpa,8.1,Europe,Levan,Fier,,40.683333,19.483333,approximate,,,yes
T0426,0,T042600,https://www.gem.wiki/Fluxys_Zeebrugge_LNG_Terminal,Zeebrugge LNG Terminal,Import,Belgium,Operating,,Fluxys (100%),1987,2018,,,6.6,mtpa,6.6,Europe,Zeebrugge,Bruges,West Flanders,51.353,3.22241,exact,,,
T0426,1,T042601,https://www.gem.wiki/Fluxys_Zeebrugge_LNG_Terminal,"Zeebrugge LNG Terminal, 2024 Expansion",Import,Belgium,Proposed,,Fluxys (100%),2024,,,,4.7,mtpa,4.7,Europe,Zeebrugge,Bruges,West Flanders,51.353,3.22241,exact,FID,2021,
T0426,2,T042602,https://www.gem.wiki/Fluxys_Zeebrugge_LNG_Terminal,"Zeebrugge LNG Terminal, 2026 Expansion",Import,Belgium,Proposed,,Fluxys (100%),2026,,,,1.3,mtpa,1.3,Europe,Zeebrugge,Bruges,West Flanders,51.353,3.22241,exact,FID,2021,
T0428,0,T042800,https://www.gem.wiki/Adria_LNG_Terminal,Adria LNG Terminal,Import,Croatia,Cancelled,,E.ON; OMV; Total S.A.; RWE AG; Geoplin,,,,,7,mtpa,7,Europe,"Omi�alj, Krk Island",,Primorje-Gorski Kotar,45.211944,14.554167,approximate,,,
T0430,0,T043000,https://www.gem.wiki/Hrvatska_LNG_Terminal,Krk LNG Terminal,Import,Croatia,Operating,"Hrvatska LNG Terminal, LNG Croatia",HEP Grupa (85%); Plinacro (15%),2021,,,,2,mtpa,2,Europe,"Omi�alj, Krk Island",,Primorje-Gorski Kotar,45.188543,14.545081,approximate,FID,,yes
T0430,1,T043001,https://www.gem.wiki/Hrvatska_LNG_Terminal,Krk LNG Terminal Phase 2,Import,Croatia,Proposed,"Hrvatska LNG Terminal, LNG Croatia",HEP Grupa (85%); Plinacro (15%),2027,,,,3.2,mtpa,3.2,Europe,"Omi�alj, Krk Island",,Primorje-Gorski Kotar,45.188543,14.545081,approximate,Pre-FID,,yes
T0432,0,T043200,https://www.gem.wiki/Cyprus_LNG_Terminal,Cyprus LNG Terminal (Import),Import,Cyprus,|,"Vassiliko FSRU Terminal, Gas2EU Project Terminal, CyprusGas2EU",DEFA (100%),2023,,,,0.6,mtpa,0.6,Europe,Vasilikos,,,34.712094,33.301556,approximate,Pre-FID,,yes
T0432,1,T043201,https://www.gem.wiki/Cyprus_LNG_Terminal,Cyprus LNG Terminal (Export) T1,Export,Cyprus,Cancelled,"Vassiliko FSRU Terminal, Gas2EU Project Terminal, CyprusGas2EU",DEFA (100%),2021,,,,0.63,mtpa,0.63,Europe,Vasilikos,,,34.712094,33.301556,approximate,Pre-FID,,
T0432,2,T043202,https://www.gem.wiki/Cyprus_LNG_Terminal,Cyprus LNG Terminal (Export) T2,Export,Cyprus,Cancelled,"Vassiliko FSRU Terminal, Gas2EU Project Terminal, CyprusGas2EU",DEFA (100%),2021,,,,0.63,mtpa,0.63,Europe,Vasilikos,,,34.712094,33.301556,approximate,Pre-FID,,
T0432,3,T043203,https://www.gem.wiki/Cyprus_LNG_Terminal,Cyprus LNG Terminal (Export) T3,Export,Cyprus,Cancelled,"Vassiliko FSRU Terminal, Gas2EU Project Terminal, CyprusGas2EU",DEFA (100%),2021,,,,0.63,mtpa,0.63,Europe,Vasilikos,,,34.712094,33.301556,approximate,Pre-FID,,
T0432,4,T043204,https://www.gem.wiki/Cyprus_LNG_Terminal,Cyprus LNG Terminal (Export) T4,Export,Cyprus,Cancelled,"Vassiliko FSRU Terminal, Gas2EU Project Terminal, CyprusGas2EU",DEFA (100%),2021,,,,0.63,mtpa,0.63,Europe,Vasilikos,,,34.712094,33.301556,approximate,Pre-FID,,
T0432,5,T043205,https://www.gem.wiki/Cyprus_LNG_Terminal,Cyprus LNG Terminal (Export) T5,Export,Cyprus,Cancelled,"Vassiliko FSRU Terminal, Gas2EU Project Terminal, CyprusGas2EU",DEFA (100%),2021,,,,0.63,mtpa,0.63,Europe,Vasilikos,,,34.712094,33.301556,approximate,Pre-FID,,
T0432,6,T043206,https://www.gem.wiki/Cyprus_LNG_Terminal,Cyprus LNG Terminal (Export) T6,Export,Cyprus,Cancelled,"Vassiliko FSRU Terminal, Gas2EU Project Terminal, CyprusGas2EU",DEFA (100%),2021,,,,0.63,mtpa,0.63,Europe,Vasilikos,,,34.712094,33.301556,approximate,Pre-FID,,
T0432,7,T043207,https://www.gem.wiki/Cyprus_LNG_Terminal,Cyprus LNG Terminal (Export) T7,Export,Cyprus,Cancelled,"Vassiliko FSRU Terminal, Gas2EU Project Terminal, CyprusGas2EU",DEFA (100%),2021,,,,0.63,mtpa,0.63,Europe,Vasilikos,,,34.712094,33.301556,approximate,Pre-FID,,
T0432,8,T043208,https://www.gem.wiki/Cyprus_LNG_Terminal,Cyprus LNG Terminal (Export) T8,Export,Cyprus,Cancelled,"Vassiliko FSRU Terminal, Gas2EU Project Terminal, CyprusGas2EU",DEFA (100%),2021,,,,0.63,mtpa,0.63,Europe,Vasilikos,,,34.712094,33.301556,approximate,Pre-FID,,
T0434,0,T043400,https://www.gem.wiki/Paldiski_LNG_Terminal,Paldiski LNG Terminal,Import,Estonia,Proposed,Baltic Gaas,Alexela,2025,,,,1.8,mtpa,1.8,Europe,,Paldiski,Harju,59.38445,24.07494,exact,Pre-FID,,
T0436,0,T043600,https://www.gem.wiki/Tallinn_LNG_Terminal,Tallinn LNG Terminal,Import,Estonia,Shelved,"Muuga LNG, Vopak EOS, Vopak LNG, Port of Tallinn",Vopak; Government of Estonia,,,,,2.7,mtpa,2.7,Europe,Muuga Harbour,,Harju,59.50601,25.0045,exact,Pre-FID,,
T0438,0,T043800,https://www.gem.wiki/Hamina_LNG_Terminal,Hamina LNG Terminal,Import,Finland,Construction,,Haminan Energia; Alexela,2022,,,,0.1,mtpa,0.1,Europe,Port of Hamina,Hamina,Kymenlaakso,60.5183139,27.1608198,approximate,FID,2018,
T0440,0,T044000,https://www.gem.wiki/Pori_LNG_Terminal,Pori LNG Terminal,Import,Finland,Operating,,Gasum,2016,,,,0.1,mtpa,0.1,Europe,Port of Tahkoluoto,Pori,Satakunta,61.63817,21.39881,exact,FID,,
T0442,0,T044200,https://www.gem.wiki/Southern_Finland_LNG_Terminal,Southern Finland LNG Terminal,Import,Finland,Cancelled,,Gasum,,,,,,,--,Europe,,Ing�,Uusimaa,60.01371,23.95714,approximate,,,
T0444,0,T044400,https://www.gem.wiki/Tornio_Manga_LNG_Terminal,Tornio Manga LNG Terminal,Import,Finland,Operating,,Outokumpu Group (45%); SSAB (25%); Gasum (25%); EPV Energy (5%),2018,,,,0.4,mtpa,0.4,Europe,"Tornio harbour, Port of R�ytt�,",,,65.847366,24.152152,exact,FID,,
T0446,0,T044600,https://www.gem.wiki/Dunkirk_LNG_Terminal,Dunkirk LNG Terminal,Import,France,Operating,Dunkerque LNG Terminal,Fluxys (15.19%); Axa (13.08%); Credit Agricole Group (15.19%); Samsung (13.08%); IBK Securities (13.08%); Hanwha Investment and Securities (13.08%),2016,,,,9.6,mtpa,9.6,Europe,Dunkirk,Nord,Hauts-de-France,51.03361,2.19653,exact,FID,,
T0448,0,T044800,https://www.gem.wiki/Fos_Cavaou_LNG_Terminal,Fos Cavaou LNG Terminal,Import,France,Operating,,Engie (100%),2010,,,,6.6,mtpa,6.6,Europe,Fos-sur-Mer,Bouches-du-Rh�ne,Provence-Alpes-C�te d'Azur,43.41963,4.90102,exact,,,
T0448,1,T044801,https://www.gem.wiki/Fos_Cavaou_LNG_Terminal,Fos Cavaou LNG Terminal Expansion 1,Import,France,Proposed,,Engie (100%),2026,,,,2,mtpa,2,Europe,Fos-sur-Mer,Bouches-du-Rh�ne,Provence-Alpes-C�te d'Azur,43.41963,4.90102,exact,Pre-FID,,
T0448,2,T044802,https://www.gem.wiki/Fos_Cavaou_LNG_Terminal,Fos Cavaou LNG Terminal Expansion 2,Import,France,Proposed,,Engie (100%),2026,,,,4,mtpa,4,Europe,Fos-sur-Mer,Bouches-du-Rh�ne,Provence-Alpes-C�te d'Azur,43.41963,4.90102,exact,Pre-FID,,
T0450,0,T045000,https://www.gem.wiki/Fos_Lavera_Marseille_LNG_Terminal,Fos Lavera Marseille LNG Terminal,Import,France,Cancelled,Fos Faster,Vopak (90%); Shell plc (10%),,,,,5.4,mtpa,5.4,Europe,Fos-sur-Mer,Bouches-du-Rh�ne,Provence-Alpes-C�te d'Azur,43.40705,4.87237,exact,,,
T0452,0,T045200,https://www.gem.wiki/Fos_Tonkin_LNG_Terminal,Fos Tonkin LNG Terminal,Import,France,Operating,,Engie (100%),1972,,,,2.4,mtpa,2.4,Europe,Fos-sur-Mer,Bouches-du-Rh�ne,Provence-Alpes-C�te d'Azur,43.454,4.85167,exact,,,
T0454,0,T045400,https://www.gem.wiki/Le_Havre-Antifer_LNG_Terminal,Le Havre-Antifer LNG Terminal,Import,France,Cancelled,,Poweo (73%); CIM Group (27%),,,,,7,mtpa,7,Europe,Le Havre-Antifer oil refinery,Seine-Maritime,Normandy,49.65782,0.15421,approximate,,,
T0456,0,T045600,https://www.gem.wiki/Montoir_LNG_Terminal,Montoir LNG Terminal,Import,France,Operating,Montoir-de-Bretagne LNG Terminal,Engie (100%),1980,,,,8,mtpa,8,Europe,Montoir-de-Bretagne,Loire-Atlantique,Pays de la Loire,47.30296,-2.14278,exact,,,
T0456,1,T045601,https://www.gem.wiki/Montoir_LNG_Terminal,Montoir LNG Terminal Expansion,Import,France,Proposed,Montoir-de-Bretagne LNG Terminal,PipeChina (46%); Tianjin Port Group (40%); Tianjin Gas Group (9%); Tianjin Hengrongda Technology Company (5%),2023,,,,1.8,mtpa,1.8,Europe,Montoir-de-Bretagne,Loire-Atlantique,Pays de la Loire,47.30296,-2.14278,exact,Pre-FID,,
T0458,0,T045800,https://www.gem.wiki/Wilhelmshaven_FSRU_Terminal,Wilhelmshaven FSRU Terminal,Import,Germany,Proposed,,Mitsui Group,2024,,,2021,10,bcm/y,7.352941863,Europe,Wilhelmshaven,,Lower Saxony,53.516667,8.133333,approximate,,,yes
T0460,0,T046000,https://www.gem.wiki/Hamburg_LNG_Terminal,Brunsb�ttel LNG Terminal,Import,Germany,Proposed,"Hamburg LNG Terminal, German LNG Terminal",Gasunie; Oiltanking,2024,,,,8,bcm/y,5.88235349,Europe,Brunsb�ttel,,Hamburg,53.9140009,8.9760945,approximate,Pre-FID,,
T0462,0,T046200,https://www.gem.wiki/Revithoussa_LNG_Terminal,Revithoussa LNG Terminal,Import,Greece,Operating,,DEPA (100%),2000,,,,3.7,mtpa,3.7,Europe,Revithoussa Island,Megara Bay,Attica,37.96,23.4023,exact,,,
T0464,1,T046401,https://www.gem.wiki/Shannon_LNG_Terminal,Shannon LNG Terminal Phase I,Import,Ireland,Proposed,,New Fortress Energy,2022,,,,2.8,bcm/y,2.058823722,Europe,Tarbert/Ballylongford,Kerry,Munster,52.58099,-9.44246,exact,Pre-FID,,
T0464,2,T046402,https://www.gem.wiki/Shannon_LNG_Terminal,Shannon LNG Terminal Phase II,Import,Ireland,Proposed,,New Fortress Energy,2025,,,,2.1,bcm/y,1.544117791,Europe,Tarbert/Ballylongford,Kerry,Munster,52.58099,-9.44246,exact,Pre-FID,,
T0464,3,T046403,https://www.gem.wiki/Shannon_LNG_Terminal,Shannon LNG Terminal Phase III,Import,Ireland,Proposed,,New Fortress Energy,2029,,,,3.3,bcm/y,2.426470815,Europe,Tarbert/Ballylongford,Kerry,Munster,52.58099,-9.44246,exact,Pre-FID,,
T0466,0,T046600,https://www.gem.wiki/Adriatic_Rovigo_LNG_Terminal,Adriatic LNG Terminal,Import,Italy,Operating,"Terminale GNL Adriatico Srl, Porto Levante LNG Terminal, Rovigo",ExxonMobil (7.3%); Qatar Petroleum (22%); Cassa Depositi e Prestiti (7.3%),2009,,,,9,bcm/y,6.617647676,Europe,offshore,Rovigo,Veneto,45.091667,12.586111,exact,,,
T0468,0,T046800,https://www.gem.wiki/Brindisi_LNG_Terminal,Brindisi LNG Terminal,Import,Italy,Cancelled,,BG Group,,,,,6,mtpa,6,Europe,Capo Bianco,Brindisi,Apulia,40.64801,17.99101,exact,,,
T0470,0,T047000,https://www.gem.wiki/Falconara_Marittima_LNG_Terminal,Falconara Marittima LNG Terminal,Import,Italy,Cancelled,,API Holding,,,,,4.8,mtpa,4.8,Europe,offshore,Ancona,Marche,43.741,13.543,approximate,,,
T0472,0,T047200,https://www.gem.wiki/Gioia_Tauro_LNG_Terminal,Gioia Tauro LNG Terminal,Import,Italy,Proposed,Trinitapoli LNG Terminal,Iren Group; Sorgenia,,,,,8.6,mtpa,8.6,Europe,Trinitapoli,Barletta-Andria-Trani,Apulia,38.46692,15.899,approximate,,,
T0474,0,T047400,https://www.gem.wiki/Toscana_LNG_Terminal,Toscana LNG Terminal,Import,Italy,Operating,Livorno LNG Terminal,Snam (2.69%); Mitsubishi UFJ Financial Group (.%); Golar LNG Limited (2.69%),2013,,,,2.8,mtpa,2.8,Europe,offshore,Livorno,Toscana,43.644444,9.988889,approximate,,,yes
T0476,0,T047600,https://www.gem.wiki/Panigaglia_LNG_Terminal,Panigaglia LNG Terminal,Import,Italy,Operating,,Snam,1971,,,,2.5,mtpa,2.5,Europe,Porto Venere,La Spezia,Liguria,44.07428,9.83087,exact,,,
T0476,1,T047601,https://www.gem.wiki/Panigaglia_LNG_Terminal,Panigaglia LNG Terminal Expansion,Import,Italy,Cancelled,,Snam,2022,,,,3.5,mtpa,3.5,Europe,Porto Venere,La Spezia,Liguria,44.07428,9.83087,exact,,,
T0478,0,T047800,https://www.gem.wiki/Porto_Empedocle_LNG_Terminal,Porto Empedocle LNG Terminal,Import,Italy,Proposed,,Enel,2015,,,,6,mtpa,6,Europe,Agrigento,Agrigento,Sicily,37.28297,13.53774,exact,Pre-FID,,
T0480,0,T048000,https://www.gem.wiki/Priolo_Augusta_LNG_Terminal,Priolo Augusta LNG Terminal,Import,Italy,Cancelled,,Shell plc,,,,,8,bcm/y,5.88235349,Europe,Augusta,Syracuse,Sicily,37.25,15.216667,approximate,,,
T0482,0,T048200,https://www.gem.wiki/Trieste_Monfalcone_LNG_Terminal,Trieste Monfalcone LNG Terminal,Import,Italy,Cancelled,,E.ON,,,,,6,mtpa,6,Europe,Monfalcone,Gorizia,Friuli-Venezia Giulia,45.8,13.533333,approximate,,,
T0484,0,T048400,https://www.gem.wiki/Zaule_LNG_Terminal,Zaule LNG Terminal,Import,Italy,Cancelled,,Gas Natural,,,,,5.4,mtpa,5.4,Europe,Trieste,Trieste,Friuli-Venezia Giulia,45.61239,13.79281,exact,,,
T0486,0,T048600,https://www.gem.wiki/Riga_LNG_Terminal,Riga LNG Terminal,Import,Latvia,Cancelled,,Latvenergo,,,,,3.6,mtpa,3.6,Europe,Riga,,,56.948889,24.106389,approximate,,,yes
T0488,0,T048800,https://www.gem.wiki/Klaipeda_LNG_Terminal,Klaipeda LNG Terminal,Import,Lithuania,Operating,Independence,Ho?egh LNG (100%),2014,,,,2.9,mtpa,2.9,Europe,Klaipeda Port,Klaipeda,,55.66451,21.13762,exact,FID,,yes
T0490,0,T049000,https://www.gem.wiki/Delimara_FSRU_Terminal,Delimara FSRU Terminal,Import,Malta,Operating,Armada LNG Mediterrana,Bumi Armada (100%),2017,,,,0.5,mtpa,0.5,Europe,Marsaxlokk ,,South Eastern Region,35.8277,14.5542,exact,FID,,yes
T0492,0,T049200,https://www.gem.wiki/Gate_LNG_Terminal,Gate LNG Terminal,Import,Netherlands,Operating,,Gasunie (50%); Vopak (50%),2011,,,,12,bcm/y,8.823530235,Europe,"Maasvlakte, Port of Rotterdam",Rotterdam,South Holland,51.971111,4.068889,exact,,,
T0492,1,T049201,https://www.gem.wiki/Gate_LNG_Terminal,Gate LNG Terminal Expansion,Import,Netherlands,Proposed,,Gasunie (50%); Vopak (50%),2024,,,,1.5,bcm/y,1.102941279,Europe,"Maasvlakte, Port of Rotterdam",Rotterdam,South Holland,51.971111,4.068889,exact,FID,2021,
T0492,2,T049202,https://www.gem.wiki/Gate_LNG_Terminal,Gate LNG Terminal Additional Expansion,Import,Netherlands,Proposed,,Gasunie (50%); Vopak (50%),,,,,8,bcm/y,5.88235349,Europe,"Maasvlakte, Port of Rotterdam",Rotterdam,South Holland,51.971111,4.068889,exact,,,
T0494,1,T049401,https://www.gem.wiki/Hammerfest_LNG_Snohvit_Terminal,Hammerfest LNG Snohvit Terminal,Export,Norway,Idle,Snohvit Melkoa LNG Terminal,Equinor (18.4%); Petoro (30%); Total S.A. (18.4%); Engie (12%); Hess Corporation (3.26%); RWE AG (2.81%),2007,,,,4.2,mtpa,4.2,Europe,Melkoa Island,Hammerfest,Finnmark,70.6854,23.59,exact,,,
T0496,1,T049601,https://www.gem.wiki/Nordic_Skangas_LNG_Terminal,Nordic Gasum LNG Terminal,Export,Norway,Operating,Risavika LNG Terminal,Gasum,2011,,,,0.3,mtpa,0.3,Europe,Port of Risavika,Sola,Rogaland,58.9237,5.5761,exact,,,
T0498,0,T049800,https://www.gem.wiki/%c5%9awinouj%c5%9bcie_Polskie_LNG_Terminal,?winouj?cie Polskie LNG Terminal,Import,Poland,Operating,,PGNiG,2016,,,,5,bcm/y,3.676470931,Europe,?winouj?cie,?winouj?cie,Wojew�dztwo,53.909167,14.294722,exact,FID,,
T0498,1,T049801,https://www.gem.wiki/%c5%9awinouj%c5%9bcie_Polskie_LNG_Terminal,?winouj?cie Polskie LNG Terminal Expansion,Import,Poland,Construction,,PGNiG,2021,,,,2.5,bcm/y,1.838235466,Europe,?winouj?cie,?winouj?cie,Wojew�dztwo,53.909167,14.294722,exact,FID,,
T0498,2,T049802,https://www.gem.wiki/%c5%9awinouj%c5%9bcie_Polskie_LNG_Terminal,?winouj?cie Polskie LNG Terminal Expansion 2,Import,Poland,Construction,,PGNiG,2023,,,,0.8,bcm/y,0.588235349,Europe,?winouj?cie,?winouj?cie,Wojew�dztwo,53.909167,14.294722,exact,FID,,
T0500,0,T050000,https://www.gem.wiki/Sines_LNG_Terminal,Sines LNG Terminal,Import,Portugal,Operating,,REN Atlantico (100%),2004,,,,5.8,mtpa,5.8,Europe,Sines,Set�bal,Alentejo,37.9419,-8.8435,exact,,,
T0502,0,T050200,https://www.gem.wiki/Constanta_LNG_Terminal,Constanta LNG Terminal,Import,Romania,Proposed,Agri LNG Terminal,RomGaz,2027,,,,6,mtpa,6,Europe,Constanta,,Dobruja,44.173333,28.638333,approximate,Pre-FID,,
T0522,0,T052200,https://www.gem.wiki/Barcelona_LNG_Terminal,Barcelona LNG Terminal,Import,Spain,Operating,,Enag�s,1969,,,,12.8,mtpa,12.8,Europe,Barcelona,,Catalonia,41.3394,2.1583,exact,,,
T0524,0,T052400,https://www.gem.wiki/Bilbao_LNG_Terminal,Bilbao LNG Terminal,Import,Spain,Operating,Bahia de Bizkaia Gas Terminal,Enag�s (50%); Basque Energy Board (EVE) (50%),2003,,,,5.1,mtpa,5.1,Europe,Port of Bilbao,Zierbena,Biscay,43.3612,-3.09473,exact,,,
T0526,0,T052600,https://www.gem.wiki/Cartagena_LNG_Terminal_(Spain),Cartagena LNG Terminal (Spain),Import,Spain,Operating,,Enag�s,1989,,,,8.7,mtpa,8.7,Europe,Escombreras Dock,Cartagena,Province of Murcia,37.57457,-0.9595,exact,,,
T0528,0,T052800,https://www.gem.wiki/El_Musel_LNG_Terminal,El Musel LNG Terminal,Import,Spain,Idle,,Enag�s,2012,,,,5.4,mtpa,5.4,Europe,Gijon,,Asturias,43.5696,-5.6934,exact,FID,,
T0530,0,T053000,https://www.gem.wiki/Gran_Canaria_LNG_Terminal,Gran Canaria LNG Terminal,Import,Spain,Proposed,,Enag�s,2029,,,,1,mtpa,1,Europe,Puerto de Arinaga,Gran Canaria,Las Palmas,27.851956,-15.401621,approximate,FID,,
T0532,0,T053200,https://www.gem.wiki/Huelva_LNG_Terminal,Huelva LNG Terminal,Import,Spain,Operating,,Enag�s,1988,,,,8.7,mtpa,8.7,Europe,Huelva,,Andalusia,37.17355,-6.911,exact,,,
T0534,0,T053400,https://www.gem.wiki/Mugardos_LNG_Terminal,Mugardos LNG Terminal,Import,Spain,Operating,Reganosa Ferrol,Tojeiro Group (51%); Sojitz (15%); Sonatrach (10%); Government of Galician (24%),2007,,,,2.6,mtpa,2.6,Europe,Mugardos,La Coruna,Galicia,43.4613,-8.2395,exact,,,
T0534,1,T053401,https://www.gem.wiki/Mugardos_LNG_Terminal,Mugardos LNG Terminal Expansion,Import,Spain,Proposed,Reganosa Ferrol,Tojeiro Group (51%); Sojitz (15%); Sonatrach (10%); Government of Galician (24%),2024,,,,3.6,bcm/y,2.647059071,Europe,Mugardos,La Coruna,Galicia,43.4613,-8.2395,exact,Pre-FID,,
T0536,0,T053600,https://www.gem.wiki/Sagunto_LNG_Terminal,Sagunto LNG Terminal,Import,Spain,Operating,Saggas,Enag�s (7.5%); Osaka Gas (20%); Oman Oil Company (7.5%),2006,,,,6.4,mtpa,6.4,Europe,Sagunto Port,,Valencia,39.6329,-0.2152,exact,,,
T0537,0,T053700,https://www.gem.wiki/Tenerife_LNG_Terminal,Tenerife LNG Terminal,Import,Spain,Cancelled,,Enel,,,,presumed,1,mtpa,1,Europe,Granadilla de Abona,,Santa Cruz de Tenerife,28.116667,-16.566667,approximate,FID,,
T0539,0,T053900,https://www.gem.wiki/Brunnsviksholme_LNG_Terminal,Brunnsviksholme LNG Terminal,Import,Sweden,Operating,Nyn�shamn,AGA Gas,2011,,,,0.4,mtpa,0.4,Europe,"Brunnsviksholme, Nyn�shamn Municipality, Stockholm County",,,58.922139,17.976153,exact,,,
T0541,0,T054100,https://www.gem.wiki/Etki_FLNG_Terminal,Etki FLNG Terminal,Import,Turkey,Operating,Neptune LNG Terminal,Pardus Energy,2016,,,,5.7,mtpa,5.7,Europe,Izmir,Aliaga,Aegean,38.422,27.129,approximate,FID,,yes
T0543,0,T054300,https://www.gem.wiki/Izmir_Aliaga_LNG_Terminal,Izmir Aliaga LNG Terminal,Import,Turkey,Operating,,EgeGaz (100%),2006,,,,10.7,mtpa,10.7,Europe,Aliaga,Aliaga,Izmir,38.795,26.970278,approximate,,,
T0545,0,T054500,https://www.gem.wiki/Marmara_LNG_Terminal,Marmara LNG Terminal,Import,Turkey,Operating,,BOTA? (100%),1994,,,,4.6,mtpa,4.6,Europe,Marmara Ereglisi,Marmara Ereglisi,Tekirdag,40.969722,27.955278,approximate,,,
T0547,0,T054700,https://www.gem.wiki/Canatxx_LNG_Terminal,Canatxx LNG Terminal,Import,United Kingdom,Cancelled,,Canatxx LNG Limited,,,,,10,mtpa,10,Europe,Anglesey,,Wales,53.283333,-4.333333,approximate,,,
T0549,0,T054900,https://www.gem.wiki/Canvey_LNG_Terminal,Canvey LNG Terminal,Import,United Kingdom,Cancelled,,Calor; Osaka Gas; Sojitz; Sumitomo Group,,,,,4,mtpa,4,Europe,"Thames Road, Canvey Island",Essex,East region,51.516,0.583,approximate,,,
T0551,0,T055100,https://www.gem.wiki/Dragon_LNG_Terminal,Dragon LNG Terminal,Import,United Kingdom,Operating,,Shell plc (50%); Ancala Partners (50%),2009,,,,5.6,mtpa,5.6,Europe,Waterston,"Milford Haven, Pembrokeshire",Wales,51.70453,-4.99774,exact,,,
T0553,0,T055300,https://www.gem.wiki/Grain_LNG_Terminal,Grain LNG Terminal,Import,United Kingdom,Operating,,National Grid (100%),2005,,,,14.3,mtpa,14.3,Europe,Isle of Grain,,Kent,51.45107,0.67987,exact,,,
T0553,1,T055301,https://www.gem.wiki/Grain_LNG_Terminal,Grain LNG Terminal Expansion,Import,United Kingdom,Cancelled,,National Grid,,,,,6,mtpa,6,Europe,Isle of Grain,,Kent,51.45107,0.67987,exact,,,
T0555,0,T055500,https://www.gem.wiki/Port_Meridian_FLNG_Terminal,Port Meridian FLNG Terminal,Import,United Kingdom,Cancelled,,InfraStrata,2024,,,,6,mtpa,6,Europe,Fylde,Lancashire,North West,53.837,-2.861,approximate,Pre-FID,,yes
T0557,0,T055700,https://www.gem.wiki/South_Hook_LNG_Terminal,South Hook LNG Terminal,Import,United Kingdom,Operating,,Qatar Petroleum (8.35%); ExxonMobil (.%); Total S.A. (8.35%),2009,,,,15.6,mtpa,15.6,Europe,Milford Haven,Pembrokeshire,Wales,51.7152,-5.07627,exact,,,
T0559,0,T055900,https://www.gem.wiki/Teesside_GasPort_LNG_Terminal,Teesside GasPort LNG Terminal,Import,United Kingdom,Retired,,Trafigura Group,2007,,,2015,3,mtpa,3,Europe,Middlesbrough,,,54.57423,-1.23496,exact,,,yes
T0561,0,T056100,https://www.gem.wiki/Black_Sea_LNG_Terminal,Ukraine LNG Terminal,Import,Ukraine,Shelved,"Black Sea LNG Terminal, Odessa LNG Terminal",Government of Ukraine,,,,,7.3,mtpa,7.3,Europe,Yuzhnyi Port,,Odessa Oblast,46.623611,31.101111,approximate,Pre-FID,,yes
T0618,0,T061800,https://www.gem.wiki/MOL_FSRU_Challenger,MOL FSRU Challenger,Import,Turkey,Operating,D�rtyol LNG Terminal,MOL Group (.%); Vopak (.%),2018,,,,4.1,mtpa,4.1,Europe,D�rtyol,,Hatay,36.8555793,36.1314147,exact,FID,,yes
T0619,1,T061901,https://www.gem.wiki/Crimea_LNG_Terminal,Crimea LNG Terminal,Export,Ukraine,Proposed,,Gazprom; Petrel Resources,,,,,,,--,Europe,,,Crimea,45.3098595,33.9329082,approximate,Pre-FID,,
T0663,0,T066300,https://www.gem.wiki/Gothenburg_LNG_Terminal,Gothenburg LNG Terminal,Import,Sweden,Cancelled,,Vopak; Swedegas,,,,2019,0.4,mtpa,0.4,Europe,Gothenburg,,,57.70177,11.947963,approximate,Pre-FID,,
T0681,0,T068100,https://www.gem.wiki/Alexandroupolis_LNG_Terminal,Alexandroupolis LNG Terminal,Import,Greece,Proposed,,Gastrade (80%); Bulgartransgaz (20%),2023,,,,6.1,bcm/y,4.485294536,Europe,Aegean Sea,,,40.748354,25.718754,approximate,FID,,yes
T0683,0,T068300,https://www.gem.wiki/Ravenna_LNG_Terminal,Ravenna LNG Terminal,Import,Italy,Operating,,Petrolifera Italo Rumena; Edison S.p.A.,2021,,,,0.001,bcm/y,0.000735294,Europe,Port of Ravenna ,,,44.471734,12.248134,approximate,FID,,
T0687,0,T068700,https://www.gem.wiki/Lysekil_LNG_Terminal,Lysekil LNG Terminal,Import,Sweden,Operating,,Gasum (100%),2014,,,,0.2,mtpa,0.2,Europe,,,,58.274285,11.452119,approximate,,,
T0719,1,T071901,https://www.gem.wiki/Frederikshavn_LNG_Terminal,Frederikshavn LNG Terminal,Import,Denmark,Proposed,,Nordliq (100%),,,,,0.05,mtpa,0.05,Europe,Frederikshavn,,,57.436688,10.550949,approximate,Pre-FID,,
T0720,0,T072000,https://www.gem.wiki/Rauma_LNG_terminal,Rauma LNG Terminal,Import,Finland,Proposed,,AGA Gas,,,,,,,--,Europe,Rauma,,,61.130747,21.435687,approximate,Pre-FID,,
T0721,0,T072100,https://www.gem.wiki/Stade_LNG_Terminal,Stade LNG Terminal,Import,Germany,Proposed,,Hanseatic Energy Hub,2026,,,,12,bcm/y,8.823530235,Europe,Stade,,Lower Saxony,53.652459,9.510382,approximate,Pre-FID,,
T0722,0,T072200,https://www.gem.wiki/Rostock_LNG_Terminal,Rostock LNG Terminal,Import,Germany,Cancelled,,Novatek; Fluxys,2023,,,,0.3,mtpa,0.3,Europe,Rostock,,,54.181909,12.088052,approximate,Pre-FID,,
T0723,0,T072300,https://www.gem.wiki/Cork_LNG_Terminal,Cork FSRU Terminal,Import,Ireland,Cancelled,Inisfree LNG Terminal,NextDecade,,,,2021,4,bcm/y,2.941176745,Europe,Cork,,,51.831398,-8.322984,approximate,,,yes
T0724,0,T072400,https://www.gem.wiki/HIGAS_LNG_Terminal,HIGAS LNG Terminal,Import,Italy,Operating,Santa Giusta LNG Terminal,Stolt-Nielsen Limited; Gas and Heat; CPL Concordia,2021,,,,0.3,mtpa,0.3,Europe,Oristano,,Sardinia,39.863873,8.554238,approximate,FID,,
T0725,0,T072500,https://www.gem.wiki/Skulte_LNG_Terminal,Skulte LNG Terminal,Import,Latvia,Proposed,,Skulte LNG Terminal,2024,,,,6.2,bcm/y,4.558823955,Europe,Skulte,Skulte Parish,,57.315,24.367,approximate,Pre-FID,,yes
T0726,1,T072601,https://www.gem.wiki/Tjelbergodden_LNG_Terminal,Tjelbergodden LNG Terminal,Export,Norway,Operating,,Petoro (18.1%); Equinor (5.%); ConocoPhillips (18.1%); Eni S.p.A. (5%),1997,,,,0.012,mtpa,0.012,Europe,Kj�rsvikbugen,,,63.408456,8.693715,approximate,,,
T0727,1,T072701,https://www.gem.wiki/Snurrevarden_LNG_Terminal,Snurrevarden LNG Terminal,Export,Norway,Operating,Karmoy LNG Terminal,Molgas; Total S.A.; Equinor,2003,,,,0.02,mtpa,0.02,Europe,,,,59.313521,5.285961,approximate,,,
T0728,1,T072801,https://www.gem.wiki/Kollsnes_LNG_Terminal,Kollsnes LNG Terminal,Export,Norway,Operating,,Molgas; Total S.A.; Equinor,2003,,,,0.04,mtpa,0.04,Europe,Kollsnesvegen,,,60.548447,4.834402,approximate,,,
T0728,2,T072802,https://www.gem.wiki/Kollsnes_LNG_Terminal,Kollsnes LNG Terminal Expansion,Export,Norway,Operating,,Molgas; Total S.A.; Equinor,2007,,,,0.08,mtpa,0.08,Europe,Kollsnesvegen,,,60.548447,4.834402,approximate,,,
T0730,0,T073000,https://www.gem.wiki/Fredrikstad_LNG_Terminal,Fredrikstad LNG Terminal,Import,Norway,Operating,�ra LNG Terminal,Gasum (100%),2011,,,,0.1,mtpa,0.1,Europe,�ra,,,59.1875329,10.9595717,exact,,,
T0731,0,T073100,https://www.gem.wiki/Polish_Baltic_Sea_Coast_Terminal,Polish Baltic Sea Coast Terminal,Import,Poland,Proposed,LNG Gdansk,--,2025,,,,6.1,bcm/y,4.485294536,Europe,Gdansk,,,54.407321,18.716445,approximate,Pre-FID,,
T0732,0,T073200,https://www.gem.wiki/G%C3%A4vle_LNG_terminal,G�vle LNG Terminal,Import,Sweden,Cancelled,,Gasum (100%),,,,,0.3,bcm/y,0.220588256,Europe,G�vle,,,60.681256,17.182174,approximate,,,
T0733,0,T073300,https://www.gem.wiki/Mosjoen_LNG_Terminal,Mosjoen LNG Terminal,Import,Norway,Operating,,Molgas; Total S.A.; Equinor,2007,,,,0.4,mtpa,0.4,Europe,Mosjoen,,,65.836962,13.187084,approximate,,,
T0807,0,T080700,https://www.gem.wiki/Gulf_of_Saros_FSRU,Gulf of Saros FSRU,Import,Turkey,Construction,,BOTA? (100%),2022,,,,5.4,mtpa,5.4,Europe,,,,40.594649,26.412034,approximate,FID,,yes
T0828,0,T082800,https://www.gem.wiki/Hoegh_LNG_FSRU_Terminal,Hoegh LNG FSRU Terminal,Import,Cyprus,Cancelled,,Ho?egh LNG,2021,,,2021,,,--,Europe,Vasiliko,,,34.710168,33.323549,approximate,,,yes
T0830,0,T083000,https://www.gem.wiki/Delimara_Onshore_LNG_Terminal,Delimara Onshore LNG Terminal,Import,Malta,Proposed,,--,,,,,,,--,Europe,Delimara Peninsula,,,35.831773,14.556062,approximate,Pre-FID,,
T0831,0,T083100,https://www.gem.wiki/Marshal_Vasilevskiy_FSRU_Terminal,Marshal Vasilevskiy FSRU Terminal,Import,Netherlands,Idle,,Gazprom,2020,,,,,,--,Europe,Rotterdam,,,51.953562,4.141755,approximate,,,yes
T0855,0,T085500,https://www.gem.wiki/Predator_FSRU_Terminal,Predator FSRU Terminal,Import,Ireland,Proposed,,Predator Oil & Gas,2024,,,,2.4,mtpa,2.4,Europe,,,,51.088313,-9.246541,approximate,Pre-FID,,yes
T0856,0,T085600,https://www.gem.wiki/Puerto_de_la_Luz_LNG_Terminal,Puerto de la Luz LNG Terminal,Import,Spain,Proposed,,Totisa Holdings,2023,,,,,,--,Europe,Las Palmas,Gran Canaria,Canarias,28.139483,-15.423414,approximate,Pre-FID,,
T0924,0,T092400,https://www.gem.wiki/Port_of_Vlora_LNG_Terminal,Port of Vlora LNG Terminal,Import,Albania,Proposed,,Excelerate Energy; ExxonMobil; Ministry of Infrastructure and Energy,2023,,,,,,--,Europe,Port of Vlora,,,40.449271,19.480761,approximate,Pre-FID,,
T0992,0,T099200,https://www.gem.wiki/Dioriga_FSRU_Terminal,Dioriga FSRU Terminal,Import,Greece,Proposed,,Dioriga Gas,2023,,,,2.6,bcm/y,1.911764884,Europe,Gulf of Corinth,,,37.91092,23.063539,approximate,Pre-FID,,yes
T0997,0,T099700,https://www.gem.wiki/Eemshaven_FSRU_Terminal,Eemshaven FSRU Terminal,Import,Netherlands,Proposed,,Gasunie (100%),2022,,,,4,bcm/y,2.941176745,Europe,Eemshaven,,,53.4500166,6.805397825,approximate,FID,2017,yes
T1000,0,T100000,https://www.gem.wiki/Uniper_Wilhelmshaven_LNG_Terminal,Wilhelmshaven Uniper LNG Terminal,Import,Germany,Proposed,,Uniper (100%),2025,,,,20,bcm/y,14.70588373,Europe,Wilhelmshaven Port,,Lower Saxony,53.516667,8.133333,approximate,,,
T1001,0,T100100,https://www.gem.wiki/TES_Wilhelmshaven_LNG_Terminal,TES Wilhelmshaven LNG Terminal,Import,Germany,Proposed,,Tree Energy Solutions (TES) (100%),2025,,,,10,bcm/y,7.352941863,Europe,Wilhelmshaven Port,,Lower Saxony,53.516667,8.133333,approximate,,,